{
    "links": {
        "self": "http://www.neowsapp.com/rest/v1/neo/3878624?api_key=iIulBulltgU6a56xZRHN4H3l9WmuAYTsLGpBGhQ2"
    },
    "id": "3878624",
    "neo_reference_id": "3878624",
    "name": "(2019 TV5)",
    "designation": "2019 TV5",
    "nasa_jpl_url": "http://ssd.jpl.nasa.gov/sbdb.cgi?sstr=3878624",
    "absolute_magnitude_h": 25.4,
    "estimated_diameter": {
        "kilometers": {
            "estimated_diameter_min": 0.022108281,
            "estimated_diameter_max": 0.0494356193
        },
        "meters": {
            "estimated_diameter_min": 22.1082810359,
            "estimated_diameter_max": 49.435619262
        },
        "miles": {
            "estimated_diameter_min": 0.0137374447,
            "estimated_diameter_max": 0.0307178602
        },
        "feet": {
            "estimated_diameter_min": 72.5337327539,
            "estimated_diameter_max": 162.1903570994
        }
    },
    "is_potentially_hazardous_asteroid": false,
    "close_approach_data": [
        {
            "close_approach_date": "2019-10-01",
            "close_approach_date_full": "2019-Oct-01 04:05",
            "epoch_date_close_approach": 1569902700000,
            "relative_velocity": {
                "kilometers_per_second": "17.1276740908",
                "kilometers_per_hour": "61659.6267267047",
                "miles_per_hour": "38312.8941736016"
            },
            "miss_distance": {
                "astronomical": "0.0589253703",
                "lunar": "22.9219690467",
                "kilometers": "8815109.885841261",
                "miles": "5477455.2900849618"
            },
            "orbiting_body": "Earth"
        }
    ],
    "orbital_data": {
        "orbit_id": "1",
        "orbit_determination_date": "2019-10-09 23:42:02",
        "first_observation_date": "2019-10-08",
        "last_observation_date": "2019-10-10",
        "data_arc_in_days": 2,
        "observations_used": 19,
        "orbit_uncertainty": "9",
        "minimum_orbit_intersection": ".0578313",
        "jupiter_tisserand_invariant": "4.427",
        "epoch_osculation": "2458765.5",
        "eccentricity": ".4590871230229181",
        "semi_major_axis": "1.463382789761884",
        "inclination": "22.32003248941427",
        "ascending_node_longitude": "193.9219859041176",
        "orbital_period": "646.5994660229233",
        "perihelion_distance": ".7915625949288487",
        "perihelion_argument": "97.5794861755456",
        "aphelion_distance": "2.135202984594919",
        "perihelion_time": "2458702.809334303275",
        "mean_anomaly": "34.90358535189525",
        "mean_motion": ".556758888488221",
        "equinox": "J2000",
        "orbit_class": {
            "orbit_class_type": "APO",
            "orbit_class_description": "Near-Earth asteroid orbits which cross the Earth’s orbit similar to that of 1862 Apollo",
            "orbit_class_range": "a (semi-major axis) > 1.0 AU; q (perihelion) < 1.017 AU"
        }
    },
    "is_sentry_object": false
}